IRIDIUM 36              
1 24967U 97056C   24296.90342283  .00001112  00000+0  36783-3 0  9993
2 24967  86.3913 272.6365 0002535  86.4386 273.7101 14.37138207418135
IRIDIUM 39              
1 25042U 97069D   24296.55756720  .00001307  00000+0  34243-3 0  9993
2 25042  86.3883 313.0311 0019027  27.0086 333.2104 14.48487463414559
IRIDIUM 38              
1 25043U 97069E   24296.66054176  .00000823  00000+0  26796-3 0  9998
2 25043  86.3962 333.1157 0003451 122.2557 237.8975 14.37627971411824
IRIDIUM 42              
1 25077U 97077A   24296.65645702  .00000743  00000+0  24964-3 0  9990
2 25077  86.3979 338.9922 0002404 109.4418 250.7038 14.35901007407105
IRIDIUM 44              
1 25078U 97077B   24296.62426430  .00000884  00000+0  27594-3 0  9991
2 25078  86.3937 321.5645 0004095  89.9802 270.1866 14.39747122409519
IRIDIUM 45              
1 25104U 97082A   24296.76946489  .00021307  00000+0  10146-2 0  9990
2 25104  86.3674 162.0685 0146081 132.7505 228.6135 15.09961062416062
IRIDIUM 24              
1 25105U 97082B   24296.76154257  .00000924  00000+0  27776-3 0  9995
2 25105  86.3973 180.9054 0012693 134.0196 226.2053 14.41585353409005
IRIDIUM 51              
1 25262U 98018A   24296.72313346  .00031775  00000+0  11888-2 0  9995
2 25262  86.3962 171.5064 0129099  70.1982 291.3126 15.19600198410722
